{
    "links": {
        "self": "http://www.neowsapp.com/rest/v1/neo/3986833?api_key=iIulBulltgU6a56xZRHN4H3l9WmuAYTsLGpBGhQ2"
    },
    "id": "3986833",
    "neo_reference_id": "3986833",
    "name": "(2020 BU2)",
    "designation": "2020 BU2",
    "nasa_jpl_url": "http://ssd.jpl.nasa.gov/sbdb.cgi?sstr=3986833",
    "absolute_magnitude_h": 24.478,
    "estimated_diameter": {
        "kilometers": {
            "estimated_diameter_min": 0.0338029791,
            "estimated_diameter_max": 0.0755857591
        },
        "meters": {
            "estimated_diameter_min": 33.8029790775,
            "estimated_diameter_max": 75.5857590594
        },
        "miles": {
            "estimated_diameter_min": 0.0210041909,
            "estimated_diameter_max": 0.0469667987
        },
        "feet": {
            "estimated_diameter_min": 110.9021658767,
            "estimated_diameter_max": 247.9847817524
        }
    },
    "is_potentially_hazardous_asteroid": false,
    "close_approach_data": [
        {
            "close_approach_date": "2020-02-01",
            "close_approach_date_full": "2020-Feb-01 21:46",
            "epoch_date_close_approach": 1580593560000,
            "relative_velocity": {
                "kilometers_per_second": "14.255644415",
                "kilometers_per_hour": "51320.3198939381",
                "miles_per_hour": "31888.450991875"
            },
            "miss_distance": {
                "astronomical": "0.0737224008",
                "lunar": "28.6780139112",
                "kilometers": "11028714.130966296",
                "miles": "6852925.1866190448"
            },
            "orbiting_body": "Earth"
        }
    ],
    "orbital_data": {
        "orbit_id": "2",
        "orbit_determination_date": "2020-01-30 07:25:15",
        "first_observation_date": "2020-01-19",
        "last_observation_date": "2020-01-30",
        "data_arc_in_days": 11,
        "observations_used": 17,
        "orbit_uncertainty": "8",
        "minimum_orbit_intersection": ".0306224",
        "jupiter_tisserand_invariant": "4.944",
        "epoch_osculation": "2458869.5",
        "eccentricity": ".3893135643753263",
        "semi_major_axis": "1.284183845579597",
        "inclination": "12.75630343539015",
        "ascending_node_longitude": "122.1375256314355",
        "orbital_period": "531.5440124986185",
        "perihelion_distance": ".7842336553437903",
        "perihelion_argument": "91.36102742734879",
        "aphelion_distance": "1.784134035815403",
        "perihelion_time": "2458937.495142286152",
        "mean_anomaly": "313.9487781868706",
        "mean_motion": ".677272232468117",
        "equinox": "J2000",
        "orbit_class": {
            "orbit_class_type": "APO",
            "orbit_class_description": "Near-Earth asteroid orbits which cross the Earth’s orbit similar to that of 1862 Apollo",
            "orbit_class_range": "a (semi-major axis) > 1.0 AU; q (perihelion) < 1.017 AU"
        }
    },
    "is_sentry_object": false
}